[{"OBJECT_NAME":"STARLINK-4774","OBJECT_ID":"2023-046AY","EPOCH":"2026-03-09T22:00:01.999584","MEAN_MOTION":15.08313036,"ECCENTRICITY":0.0001465,"INCLINATION":43.0004,"RA_OF_ASC_NODE":144.5768,"ARG_OF_PERICENTER":320.6141,"MEAN_ANOMALY":192.2584,"EPHEMERIS_TYPE":0,"CLASSIFICATION_TYPE":"U","NORAD_CAT_ID":56138,"ELEMENT_SET_NO":999,"REV_AT_EPOCH":572,"BSTAR":0.00016133775,"MEAN_MOTION_DOT":2.332e-5,"MEAN_MOTION_DDOT":0},{"OBJECT_NAME":"OBJECT K","OBJECT_ID":"2017-042K","EPOCH":"2026-03-09T21:28:20.621568","MEAN_MOTION":15.07994228,"ECCENTRICITY":0.00097557,"INCLINATION":97.4104,"RA_OF_ASC_NODE":233.8721,"ARG_OF_PERICENTER":49.2775,"MEAN_ANOMALY":310.9299,"EPHEMERIS_TYPE":0,"CLASSIFICATION_TYPE":"U","NORAD_CAT_ID":42834,"ELEMENT_SET_NO":999,"REV_AT_EPOCH":47201,"BSTAR":0.00042776846,"MEAN_MOTION_DOT":6.528e-5,"MEAN_MOTION_DDOT":0}]
